1 22675U 93036A   06074.86110721 -.00000001  00000-0  92958-5 0  8962
2 22675  74.0375 152.7656 0016618 130.1293 230.1317 14.31056986665549
1 22675U 93036A   06075.63007777  .00000017  00000-0  16239-4 0  8989
2 22675  74.0374 151.3655 0016626 128.6813 231.5831 14.31057276665652
1 22675U 93036A   06076.18932932  .00000016  00000-0  15735-4 0  8978
2 22675  74.0372 150.3473 0016610 127.5049 232.7614 14.31057297665733
1 22675U 93036A   06076.67867435  .00000022  00000-0  18219-4 0  8996
2 22675  74.0373 149.4565 0016564 126.3777 233.8904 14.31057419665806
1 22675U 93036A   06077.44764515  .00000017  00000-0  16200-4 0  8988
2 22675  74.0376 148.0563 0016506 124.6200 235.6497 14.31057420665911
1 22675U 93036A   06077.65736470  .00000017  00000-0  16200-4 0  8991
2 22675  74.0376 147.6745 0016506 124.1877 236.0841 14.31057438665943
1 22675U 93036A   06078.49624190  .00000009  00000-0  13316-4 0  8995
2 22675  74.0375 146.1471 0016461 122.3461 237.9277 14.31057414666062
1 22675U 93036A   06078.70596136  .00000009  00000-0  13316-4 0  9000
2 22675  74.0375 145.7653 0016461 121.9138 238.3616 14.31057429666096
1 22675U 93036A   06079.68465139  .00000029  00000-0  20642-4 0  9008
2 22675  74.0369 143.9830 0016422 119.7658 240.5161 14.31057761666230
1 22675U 93036A   06080.66333976  .00000060  00000-0  32648-4 0  9038
2 22675  74.0373 142.2013 0016389 117.7786 242.5028 14.31058269666375
1 22675U 93036A   06081.15268444  .00000060  00000-0  32648-4 0  9018
2 22675  74.0373 141.3106 0016389 116.7698 243.5131 14.31058353666447
1 22675U 93036A   06081.71193546  .00000060  00000-0  32648-4 0  9032
2 22675  74.0373 140.2927 0016389 115.6170 244.6675 14.31058449666529
1 22675U 93036A   06082.20128006  .00000060  00000-0  32648-4 0  9025
2 22675  74.0373 139.4020 0016389 114.6083 245.6776 14.31058534666590
1 22675U 93036A   06082.69062462  .00000043  00000-0  26244-4 0  9038
2 22675  74.0363 138.5092 0016280 113.4006 246.8836 14.31058346666669
1 22675U 93036A   06083.31978234  .00000036  00000-0  23359-4 0  9037
2 22675  74.0364 137.3638 0016287 112.0774 248.2095 14.31058339666752
1 22675U 93036A   06083.66931444  .00000031  00000-0  21445-4 0  9047
2 22675  74.0362 136.7272 0016246 111.2517 249.0363 14.31058307666806
1 22675U 93036A   06084.64800346  .00000036  00000-0  23330-4 0  9042
2 22675  74.0361 134.9457 0016248 109.3596 250.9312 14.31058496666946
1 22675U 93036A   06085.69659862  .00000045  00000-0  26674-4 0  9058
2 22675  74.0360 133.0364 0016209 107.0862 253.2065 14.31058723667091
1 22675U 93036A   06086.60538104  .00000045  00000-0  26674-4 0  9099
2 22675  74.0360 131.3821 0016209 105.2130 255.0813 14.31058851667226
1 22675U 93036A   06087.16463171  .00000027  00000-0  19943-4 0  9060
2 22675  74.0356 130.3630 0016130 103.9051 256.3869 14.31058656667305
1 22675U 93036A   06087.65397702  .00000005  00000-0  11623-4 0  9085
2 22675  74.0355 129.4718 0016119 102.7719 257.5232 14.31058436667375
1 22675U 93036A   06088.49285337 -.00000001  00000-0  93293-5 0  9078
2 22675  74.0355 127.9444 0016108 100.8997 259.3968 14.31058430667492
1 22675U 93036A   06088.63266603 -.00000004  00000-0  82447-5 0  9082
2 22675  74.0354 127.6897 0016104 100.6397 259.6568 14.31058412667510
1 22675U 93036A   06089.61135450  .00000015  00000-0  15636-4 0  9082
2 22675  74.0352 125.9076 0016092  98.5593 261.7393 14.31058728667652
1 22675U 93036A   06089.61135450  .00000015  00000-0  15636-4 0  9093
2 22675  74.0352 125.9076 0016092  98.5593 261.7393 14.31058728667652
1 22675U 93036A   06090.59004220  .00000037  00000-0  23724-4 0  9127
2 22675  74.0354 124.1260 0016075  96.7299 263.5681 14.31059095667797
1 22675U 93036A   06091.07938635  .00000037  00000-0  23724-4 0  9105
2 22675  74.0354 123.2351 0016075  95.7213 264.5771 14.31059156667860
1 22675U 93036A   06091.56873047  .00000037  00000-0  23724-4 0  9126
2 22675  74.0354 122.3443 0016075  94.7127 265.5859 14.31059217667939
1 22675U 93036A   06092.12798085  .00000037  00000-0  23724-4 0  9116
2 22675  74.0354 121.3263 0016075  93.5600 266.7389 14.31059287668019
1 22675U 93036A   06092.54741861  .00000053  00000-0  29705-4 0  9137
2 22675  74.0351 120.5616 0016066  92.7827 267.5191 14.31059551668071
1 22675U 93036A   06093.38629347  .00000048  00000-0  27813-4 0  9125
2 22675  74.0352 119.0343 0016087  91.2206 269.0782 14.31059592668191
1 22675U 93036A   06093.52610612  .00000043  00000-0  26115-4 0  9136
2 22675  74.0349 118.7794 0016065  90.7449 269.5534 14.31059538668215
1 22675U 93036A   06094.43488781  .00000041  00000-0  25396-4 0  9135
2 22675  74.0350 117.1248 0016060  88.8738 271.4249 14.31059638668348
1 22675U 93036A   06094.57470041  .00000037  00000-0  23821-4 0  9147
2 22675  74.0349 116.8702 0016049  88.5367 271.7618 14.31059606668369
1 22675U 93036A   06095.55338807  .00000044  00000-0  26454-4 0  9142
2 22675  74.0350 115.0882 0016039  86.4819 273.8166 14.31059810668503
1 22675U 93036A   06096.53207561  .00000044  00000-0  26454-4 0  9176
2 22675  74.0350 113.3066 0016039  84.4648 275.8331 14.31059947668648
1 22675U 93036A   06097.09132557  .00000025  00000-0  19322-4 0  9153
2 22675  74.0342 112.2863 0016014  82.8636 277.4306 14.31059732668725
1 22675U 93036A   06097.51076374  .00000015  00000-0  15354-4 0  9176
2 22675  74.0338 111.5222 0016007  81.7249 278.5706 14.31059623668782
1 22675U 93036A   06098.20982648 -.00000002  00000-0  90303-5 0  9167
2 22675  74.0340 110.2495 0016018  80.0629 280.2314 14.31059514668884
1 22675U 93036A   06098.55935804 -.00000007  00000-0  71307-5 0  9187
2 22675  74.0340 109.6131 0016008  79.4416 280.8537 14.31059484668933
1 22675U 93036A   06099.39823339 -.00000015  00000-0  39241-5 0  9178
2 22675  74.0340 108.0857 0016008  77.8527 282.4419 14.31059404669059
1 22675U 93036A   06099.53804585 -.00000016  00000-0  38154-5 0  9180
2 22675  74.0339 107.8309 0016006  77.5304 282.7636 14.31059401669077
1 22675U 93036A   06100.44682705  .00000002  00000-0  10712-4 0  9184
2 22675  74.0339 106.1760 0016008  75.5998 284.6945 14.31059667669202
1 22675U 93036A   06100.51673297  .00000002  00000-0  10712-4 0  9199
2 22675  74.0339 106.0487 0016008  75.4557 284.8367 14.31059671669213
1 22675U 93036A   06101.49542017  .00000009  00000-0  13033-4 0  9198
2 22675  74.0338 104.2664 0015992  73.1938 287.0964 14.31059810669356
1 22675U 93036A   06102.54401376  .00000007  00000-0  12429-4 0  9205
2 22675  74.0336 102.3562 0015991  70.6081 289.6796 14.31059843669504
1 22675U 93036A   06103.52270105  .00000001  00000-0  10357-4 0  9233
2 22675  74.0335 100.5740 0016002  68.5865 291.6990 14.31059835669646
1 22675U 93036A   06104.08195084  .00000004  00000-0  11240-4 0  9210
2 22675  74.0333  99.5553 0016006  67.1843 293.1001 14.31059907669727
1 22675U 93036A   06104.50138727  .00000481  00000-0  19227-3 0  9231
2 22675  74.0332  98.7870 0016024  65.6375 294.6442 14.31061439669786
1 22675U 93036A   06105.41016772  .00000110  00000-0  51531-4 0  9220
2 22675  74.0332  97.1323 0016060  63.4272 296.8525 14.31061075669911
1 22675U 93036A   06105.48007382 -.00000081  00000-0 -20744-4 0  9236
2 22675  74.0330  97.0047 0016052  63.1930 297.0854 14.31060600669922
1 22675U 93036A   06106.45876080 -.00000158  00000-0 -49998-4 0  9230
2 22675  74.0335  95.2228 0016030  61.2461 299.0297 14.31060042670062
1 22675U 93036A   06106.94810425 -.00000093  00000-0 -25301-4 0  9246
2 22675  74.0330  94.3313 0016023  60.0399 300.2377 14.31060596670137
1 22675U 93036A   06107.43744745 -.00000336  00000-0 -11745-3 0  9260
2 22675  74.0348  93.4409 0015946  59.8498 300.4236 14.31059523670203
1 22675U 93036A   06107.92679100  .00000042  00000-0  25584-4 0  9243
2 22675  74.0326  92.5522 0015964  58.9193 301.3560 14.31060759670277
1 22675U 93036A   06108.90547664  .00000039  00000-0  24705-4 0  9274
2 22675  74.0331  90.7705 0015962  57.1325 303.1361 14.31060870670411
1 22675U 93036A   06109.11519508  .00000028  00000-0  20245-4 0  9255
2 22675  74.0332  90.3886 0015988  56.6964 303.5697 14.31060749670443
1 22675U 93036A   06109.46472641  .00000005  00000-0  11636-4 0  9270
2 22675  74.0335  89.7512 0015925  55.8290 304.4359 14.31060520670495
1 22675U 93036A   06110.44341294  .00000008  00000-0  12915-4 0  9262
2 22675  74.0336  87.9690 0015929  53.7321 306.5302 14.31060637670635
1 22675U 93036A   06111.42209897  .00000016  00000-0  15687-4 0  9294
2 22675  74.0336  86.1866 0015931  51.5915 308.6662 14.31060795670771
1 22675U 93036A   06111.98134821  .00000016  00000-0  15742-4 0  9279
2 22675  74.0336  85.1682 0015924  50.4581 309.7977 14.31060854670851
1 22675U 93036A   06112.40078506  .00000012  00000-0  14514-4 0  9298
2 22675  74.0335  84.4043 0015939  49.4122 310.8406 14.31060832670911
1 22675U 93036A   06113.30956516  .00000004  00000-0  11278-4 0  9288
2 22675  74.0338  82.7493 0015964  47.4997 312.7490 14.31060810671045
1 22675U 93036A   06113.86881457  .00000002  00000-0  10404-4 0  9301
2 22675  74.0337  81.7309 0015931  46.4027 313.8448 14.31060824671125
1 22675U 93036A   06114.84750061  .00000002  00000-0  10573-4 0  9291
2 22675  74.0339  79.9489 0015961  44.2559 315.9871 14.31060902671269
1 22675U 93036A   06115.89609200  .00000027  00000-0  20190-4 0  9300
2 22675  74.0341  78.0395 0016002  41.9353 318.3021 14.31061311671417
1 22675U 93036A   06116.87477719  .00000049  00000-0  28400-4 0  9336
2 22675  74.0342  76.2571 0016012  39.7837 320.4494 14.31061711671554
1 22675U 93036A   06117.15440141  .00000051  00000-0  29031-4 0  9319
2 22675  74.0347  75.7480 0015995  39.2984 320.9321 14.31061767671598
